{"fetched_at":"2026-07-21T07:07:06.601Z","source":"https://celestrak.org/NORAD/elements/gp.php?NAME=PLEIADES&FORMAT=JSON","constellation":"pleiades-neo","records":[{"OBJECT_NAME":"PLEIADES NEO 3","OBJECT_ID":"2021-034A","EPOCH":"2026-07-20T22:50:41.166240","CLASSIFICATION_TYPE":"U","MEAN_MOTION":14.81660784,"ECCENTRICITY":0.00013666,"INCLINATION":97.8937,"RA_OF_ASC_NODE":276.233,"ARG_OF_PERICENTER":98.1626,"MEAN_ANOMALY":261.9742,"EPHEMERIS_TYPE":0,"NORAD_CAT_ID":48268,"ELEMENT_SET_NO":999,"REV_AT_EPOCH":28265,"BSTAR":0.00001682367,"MEAN_MOTION_DOT":8e-7,"MEAN_MOTION_DDOT":0},{"OBJECT_NAME":"PLEIADES NEO 4","OBJECT_ID":"2021-073E","EPOCH":"2026-07-20T22:02:01.477824","CLASSIFICATION_TYPE":"U","MEAN_MOTION":14.81674731,"ECCENTRICITY":0.00013888,"INCLINATION":97.8935,"RA_OF_ASC_NODE":276.1957,"ARG_OF_PERICENTER":95.85,"MEAN_ANOMALY":264.2872,"EPHEMERIS_TYPE":0,"NORAD_CAT_ID":49070,"ELEMENT_SET_NO":999,"REV_AT_EPOCH":26636,"BSTAR":0.000094436283,"MEAN_MOTION_DOT":0.00000691,"MEAN_MOTION_DDOT":0}]}
